[{"OBJECT_NAME":"STARLINK-3542","OBJECT_ID":"2022-022A","EPOCH":"2026-03-09T04:33:59.245920","MEAN_MOTION":15.0886006,"ECCENTRICITY":0.00012096,"INCLINATION":53.2191,"RA_OF_ASC_NODE":21.3629,"ARG_OF_PERICENTER":96.3422,"MEAN_ANOMALY":263.7708,"EPHEMERIS_TYPE":0,"CLASSIFICATION_TYPE":"U","NORAD_CAT_ID":51852,"ELEMENT_SET_NO":999,"REV_AT_EPOCH":22168,"BSTAR":0.00023272751,"MEAN_MOTION_DOT":3.42e-5,"MEAN_MOTION_DDOT":0},{"OBJECT_NAME":"DELTA 1 DEB","OBJECT_ID":"1978-026BX","EPOCH":"2026-03-09T21:34:36.806304","MEAN_MOTION":15.0275865,"ECCENTRICITY":0.00371244,"INCLINATION":98.0194,"RA_OF_ASC_NODE":65.5332,"ARG_OF_PERICENTER":51.7385,"MEAN_ANOMALY":308.7169,"EPHEMERIS_TYPE":0,"CLASSIFICATION_TYPE":"U","NORAD_CAT_ID":12230,"ELEMENT_SET_NO":999,"REV_AT_EPOCH":36609,"BSTAR":0.0014350783,"MEAN_MOTION_DOT":0.00019449,"MEAN_MOTION_DDOT":0}]
